{
  "type": "FeatureCollection",
  "features": [
    {
      "type": "Feature",
      "properties": {
        "norad_id": 31646,
        "name": "FENGYUN 1C DEB",
        "group": "fengyun-1c-debris",
        "lat": 20.9262041133932,
        "lon": -153.65342377725867,
        "alt_km": 821.805526156234,
        "timestamp": "2025-12-26T08:37:54.863688+00:00",
        "meta_object_name": "FENGYUN 1C DEB",
        "meta_object_id": "1999-025CBC",
        "meta_epoch": "2025-12-21T19:12:21.278592",
        "meta_mean_motion": 14.1415009,
        "meta_eccentricity": 0.00334947,
        "meta_inclination": 98.6891,
        "meta_ra_of_asc_node": 18.5609,
        "meta_arg_of_pericenter": 188.0881,
        "meta_mean_anomaly": 171.9757,
        "meta_ephemeris_type": 0,
        "meta_classification_type": "U",
        "meta_norad_cat_id": 31646,
        "meta_element_set_no": 999,
        "meta_rev_at_epoch": 63319,
        "meta_bstar": 0.00038755051,
        "meta_mean_motion_dot": 6.99e-06,
        "meta_mean_motion_ddot": 0,
        "tle_line1": "1 31646U 99025CBC 25355.80024628  .00000699  00000+0  38755-3 0  9999",
        "tle_line2": "2 31646  98.6891  18.5609 0033494 188.0881 171.9757 14.14150090633193"
      },
      "geometry": {
        "type": "Point",
        "coordinates": [
          -153.65342377725867,
          20.9262041133932
        ]
      }
    },
    {
      "type": "Feature",
      "properties": {
        "norad_id": 31655,
        "name": "FENGYUN 1C DEB",
        "group": "fengyun-1c-debris",
        "lat": 28.701378413810907,
        "lon": -59.48485155184145,
        "alt_km": 952.2315961678441,
        "timestamp": "2025-12-26T08:37:54.863698+00:00",
        "meta_object_name": "FENGYUN 1C DEB",
        "meta_object_id": "1999-025CBM",
        "meta_epoch": "2025-12-21T19:28:59.991744",
        "meta_mean_motion": 13.63924147,
        "meta_eccentricity": 0.02903525,
        "meta_inclination": 99.2852,
        "meta_ra_of_asc_node": 301.3055,
        "meta_arg_of_pericenter": 114.1713,
        "meta_mean_anomaly": 279.1459,
        "meta_ephemeris_type": 0,
        "meta_classification_type": "U",
        "meta_norad_cat_id": 31655,
        "meta_element_set_no": 999,
        "meta_rev_at_epoch": 59843,
        "meta_bstar": 0.0030683353,
        "meta_mean_motion_dot": 3.207e-05,
        "meta_mean_motion_ddot": 0,
        "tle_line1": "1 31655U 99025CBM 25355.81180546  .00003207  00000+0  30683-2 0  9991",
        "tle_line2": "2 31655  99.2852 301.3055 0290352 114.1713 279.1459 13.63924147598439"
      },
      "geometry": {
        "type": "Point",
        "coordinates": [
          -59.48485155184145,
          28.701378413810907
        ]
      }
    },
    {
      "type": "Feature",
      "properties": {
        "norad_id": 31656,
        "name": "FENGYUN 1C DEB",
        "group": "fengyun-1c-debris",
        "lat": -80.53866382484061,
        "lon": 66.69513231945879,
        "alt_km": 745.2925012890391,
        "timestamp": "2025-12-26T08:37:54.863708+00:00",
        "meta_object_name": "FENGYUN 1C DEB",
        "meta_object_id": "1999-025CBN",
        "meta_epoch": "2025-12-24T11:16:17.707296",
        "meta_mean_motion": 14.47184667,
        "meta_eccentricity": 0.00227366,
        "meta_inclination": 99.1944,
        "meta_ra_of_asc_node": 348.2529,
        "meta_arg_of_pericenter": 19.4599,
        "meta_mean_anomaly": 131.8042,
        "meta_ephemeris_type": 0,
        "meta_classification_type": "U",
        "meta_norad_cat_id": 31656,
        "meta_element_set_no": 999,
        "meta_rev_at_epoch": 96625,
        "meta_bstar": 0.00224686,
        "meta_mean_motion_dot": 8.188e-05,
        "meta_mean_motion_ddot": 0,
        "tle_line1": "1 31656U 99025CBN 25358.46964939  .00008188  00000+0  22469-2 0  9998",
        "tle_line2": "2 31656  99.1944 348.2529 0022736  19.4599 131.8042 14.47184667966254"
      },
      "geometry": {
        "type": "Point",
        "coordinates": [
          66.69513231945879,
          -80.53866382484061
        ]
      }
    },
    {
      "type": "Feature",
      "properties": {
        "norad_id": 31657,
        "name": "FENGYUN 1C DEB",
        "group": "fengyun-1c-debris",
        "lat": -18.088700522515964,
        "lon": 85.12199340942071,
        "alt_km": 1015.9408542904903,
        "timestamp": "2025-12-26T08:37:54.863718+00:00",
        "meta_object_name": "FENGYUN 1C DEB",
        "meta_object_id": "1999-025CBP",
        "meta_epoch": "2025-12-15T00:08:35.623968",
        "meta_mean_motion": 13.97064465,
        "meta_eccentricity": 0.01478678,
        "meta_inclination": 102.2166,
        "meta_ra_of_asc_node": 254.1396,
        "meta_arg_of_pericenter": 48.4638,
        "meta_mean_anomaly": 312.9088,
        "meta_ephemeris_type": 0,
        "meta_classification_type": "U",
        "meta_norad_cat_id": 31657,
        "meta_element_set_no": 999,
        "meta_rev_at_epoch": 62896,
        "meta_bstar": 0.0027457393,
        "meta_mean_motion_dot": 4.139e-05,
        "meta_mean_motion_ddot": 0,
        "tle_line1": "1 31657U 99025CBP 25349.00596787  .00004139  00000+0  27457-2 0  9995",
        "tle_line2": "2 31657 102.2166 254.1396 0147867  48.4638 312.9088 13.97064465628965"
      },
      "geometry": {
        "type": "Point",
        "coordinates": [
          85.12199340942071,
          -18.088700522515964
        ]
      }
    },
    {
      "type": "Feature",
      "properties": {
        "norad_id": 31658,
        "name": "FENGYUN 1C DEB",
        "group": "fengyun-1c-debris",
        "lat": -32.46708240260662,
        "lon": 22.743172606333285,
        "alt_km": 851.1767248920169,
        "timestamp": "2025-12-26T08:37:54.863728+00:00",
        "meta_object_name": "FENGYUN 1C DEB",
        "meta_object_id": "1999-025CBQ",
        "meta_epoch": "2025-12-22T19:28:59.685024",
        "meta_mean_motion": 13.98886705,
        "meta_eccentricity": 0.02151336,
        "meta_inclination": 98.1523,
        "meta_ra_of_asc_node": 204.8159,
        "meta_arg_of_pericenter": 294.3668,
        "meta_mean_anomaly": 63.5177,
        "meta_ephemeris_type": 0,
        "meta_classification_type": "U",
        "meta_norad_cat_id": 31658,
        "meta_element_set_no": 999,
        "meta_rev_at_epoch": 69957,
        "meta_bstar": 0.0026851926,
        "meta_mean_motion_dot": 4.685e-05,
        "meta_mean_motion_ddot": 0,
        "tle_line1": "1 31658U 99025CBQ 25356.81180191  .00004685  00000+0  26852-2 0  9995",
        "tle_line2": "2 31658  98.1523 204.8159 0215133 294.3668  63.5177 13.98886705699575"
      },
      "geometry": {
        "type": "Point",
        "coordinates": [
          22.743172606333285,
          -32.46708240260662
        ]
      }
    },
    {
      "type": "Feature",
      "properties": {
        "norad_id": 31660,
        "name": "FENGYUN 1C DEB",
        "group": "fengyun-1c-debris",
        "lat": 32.7392953081803,
        "lon": -4.1875400157569524,
        "alt_km": 820.5141651853646,
        "timestamp": "2025-12-26T08:37:54.863738+00:00",
        "meta_object_name": "FENGYUN 1C DEB",
        "meta_object_id": "1999-025CBS",
        "meta_epoch": "2025-12-25T19:00:51.233760",
        "meta_mean_motion": 14.27158223,
        "meta_eccentricity": 0.01023474,
        "meta_inclination": 98.5066,
        "meta_ra_of_asc_node": 0.7825,
        "meta_arg_of_pericenter": 142.3016,
        "meta_mean_anomaly": 218.5394,
        "meta_ephemeris_type": 0,
        "meta_classification_type": "U",
        "meta_norad_cat_id": 31660,
        "meta_element_set_no": 999,
        "meta_rev_at_epoch": 8102,
        "meta_bstar": 0.00055332784,
        "meta_mean_motion_dot": 1.386e-05,
        "meta_mean_motion_ddot": 0,
        "tle_line1": "1 31660U 99025CBS 25359.79225965  .00001386  00000+0  55333-3 0  9999",
        "tle_line2": "2 31660  98.5066   0.7825 0102347 142.3016 218.5394 14.27158223 81026"
      },
      "geometry": {
        "type": "Point",
        "coordinates": [
          -4.1875400157569524,
          32.7392953081803
        ]
      }
    },
    {
      "type": "Feature",
      "properties": {
        "norad_id": 31661,
        "name": "FENGYUN 1C DEB",
        "group": "fengyun-1c-debris",
        "lat": 15.733138238899144,
        "lon": 77.06229922030991,
        "alt_km": 849.0456568989885,
        "timestamp": "2025-12-26T08:37:54.863749+00:00",
        "meta_object_name": "FENGYUN 1C DEB",
        "meta_object_id": "1999-025CBT",
        "meta_epoch": "2025-12-24T16:50:35.606400",
        "meta_mean_motion": 14.25524803,
        "meta_eccentricity": 0.00590656,
        "meta_inclination": 98.8598,
        "meta_ra_of_asc_node": 77.9062,
        "meta_arg_of_pericenter": 190.1629,
        "meta_mean_anomaly": 322.7954,
        "meta_ephemeris_type": 0,
        "meta_classification_type": "U",
        "meta_norad_cat_id": 31661,
        "meta_element_set_no": 999,
        "meta_rev_at_epoch": 95883,
        "meta_bstar": 0.0016959684,
        "meta_mean_motion_dot": 4.04e-05,
        "meta_mean_motion_ddot": 0,
        "tle_line1": "1 31661U 99025CBT 25358.70180100  .00004040  00000+0  16960-2 0  9993",
        "tle_line2": "2 31661  98.8598  77.9062 0059065 190.1629 322.7954 14.25524803958839"
      },
      "geometry": {
        "type": "Point",
        "coordinates": [
          77.06229922030991,
          15.733138238899144
        ]
      }
    }
  ]
}